{
  "type": "FeatureCollection",
  "features": [
    {
      "type": "Feature",
      "properties": {
        "norad_id": 30389,
        "name": "FENGYUN 1C DEB",
        "group": "fengyun-1c-debris",
        "lat": 26.263176533776335,
        "lon": -109.56354069097497,
        "alt_km": 741.2256149591894,
        "timestamp": "2025-12-10T20:49:52.829601+00:00",
        "meta_object_name": "FENGYUN 1C DEB",
        "meta_object_id": "1999-025ADC",
        "meta_epoch": "2025-12-10T11:53:40.448256",
        "meta_mean_motion": 14.43997366,
        "meta_eccentricity": 0.00140862,
        "meta_inclination": 98.8371,
        "meta_ra_of_asc_node": 65.6473,
        "meta_arg_of_pericenter": 226.5215,
        "meta_mean_anomaly": 152.3303,
        "meta_ephemeris_type": 0,
        "meta_classification_type": "U",
        "meta_norad_cat_id": 30389,
        "meta_element_set_no": 999,
        "meta_rev_at_epoch": 97754,
        "meta_bstar": 0.0036829135,
        "meta_mean_motion_dot": 0.00012577,
        "meta_mean_motion_ddot": 0,
        "tle_line1": "1 30389U 99025ADC 25344.49560704  .00012577  00000+0  36829-2 0  9992",
        "tle_line2": "2 30389  98.8371  65.6473 0014086 226.5215 152.3303 14.43997366977545"
      },
      "geometry": {
        "type": "Point",
        "coordinates": [
          -109.56354069097497,
          26.263176533776335
        ]
      }
    },
    {
      "type": "Feature",
      "properties": {
        "norad_id": 30390,
        "name": "FENGYUN 1C DEB",
        "group": "fengyun-1c-debris",
        "lat": 81.07199090194752,
        "lon": -30.61271975053629,
        "alt_km": 775.139406058016,
        "timestamp": "2025-12-10T20:49:52.829611+00:00",
        "meta_object_name": "FENGYUN 1C DEB",
        "meta_object_id": "1999-025ADD",
        "meta_epoch": "2025-12-10T05:34:37.935264",
        "meta_mean_motion": 14.29693139,
        "meta_eccentricity": 0.0068216,
        "meta_inclination": 98.8222,
        "meta_ra_of_asc_node": 67.4059,
        "meta_arg_of_pericenter": 171.6264,
        "meta_mean_anomaly": 251.0079,
        "meta_ephemeris_type": 0,
        "meta_classification_type": "U",
        "meta_norad_cat_id": 30390,
        "meta_element_set_no": 999,
        "meta_rev_at_epoch": 97348,
        "meta_bstar": 0.002928,
        "meta_mean_motion_dot": 7.662e-05,
        "meta_mean_motion_ddot": 0,
        "tle_line1": "1 30390U 99025ADD 25344.23238351  .00007662  00000+0  29280-2 0  9998",
        "tle_line2": "2 30390  98.8222  67.4059 0068216 171.6264 251.0079 14.29693139973481"
      },
      "geometry": {
        "type": "Point",
        "coordinates": [
          -30.61271975053629,
          81.07199090194752
        ]
      }
    },
    {
      "type": "Feature",
      "properties": {
        "norad_id": 30391,
        "name": "FENGYUN 1C DEB",
        "group": "fengyun-1c-debris",
        "lat": 78.9595952965104,
        "lon": -96.71416731629884,
        "alt_km": 881.595280614778,
        "timestamp": "2025-12-10T20:49:52.829621+00:00",
        "meta_object_name": "FENGYUN 1C DEB",
        "meta_object_id": "1999-025ADE",
        "meta_epoch": "2025-12-10T01:51:40.021920",
        "meta_mean_motion": 14.16217466,
        "meta_eccentricity": 0.00713405,
        "meta_inclination": 98.7807,
        "meta_ra_of_asc_node": 30.1181,
        "meta_arg_of_pericenter": 269.7069,
        "meta_mean_anomaly": 119.4811,
        "meta_ephemeris_type": 0,
        "meta_classification_type": "U",
        "meta_norad_cat_id": 30391,
        "meta_element_set_no": 999,
        "meta_rev_at_epoch": 96841,
        "meta_bstar": 0.0015804062,
        "meta_mean_motion_dot": 3.165e-05,
        "meta_mean_motion_ddot": 0,
        "tle_line1": "1 30391U 99025ADE 25344.07754655  .00003165  00000+0  15804-2 0  9992",
        "tle_line2": "2 30391  98.7807  30.1181 0071340 269.7069 119.4811 14.16217466968416"
      },
      "geometry": {
        "type": "Point",
        "coordinates": [
          -96.71416731629884,
          78.9595952965104
        ]
      }
    },
    {
      "type": "Feature",
      "properties": {
        "norad_id": 30392,
        "name": "FENGYUN 1C DEB",
        "group": "fengyun-1c-debris",
        "lat": 32.16020005267044,
        "lon": -170.91649573267046,
        "alt_km": 973.1238965255761,
        "timestamp": "2025-12-10T20:49:52.829631+00:00",
        "meta_object_name": "FENGYUN 1C DEB",
        "meta_object_id": "1999-025ADF",
        "meta_epoch": "2025-12-09T19:23:53.738304",
        "meta_mean_motion": 14.07441737,
        "meta_eccentricity": 0.01811026,
        "meta_inclination": 98.7857,
        "meta_ra_of_asc_node": 2.4724,
        "meta_arg_of_pericenter": 5.1342,
        "meta_mean_anomaly": 174.6241,
        "meta_ephemeris_type": 0,
        "meta_classification_type": "U",
        "meta_norad_cat_id": 30392,
        "meta_element_set_no": 999,
        "meta_rev_at_epoch": 96629,
        "meta_bstar": 0.0011986221,
        "meta_mean_motion_dot": 2.3e-05,
        "meta_mean_motion_ddot": 0,
        "tle_line1": "1 30392U 99025ADF 25343.80826086  .00002300  00000+0  11986-2 0  9998",
        "tle_line2": "2 30392  98.7857   2.4724 0181102   5.1342 174.6241 14.07441737966295"
      },
      "geometry": {
        "type": "Point",
        "coordinates": [
          -170.91649573267046,
          32.16020005267044
        ]
      }
    },
    {
      "type": "Feature",
      "properties": {
        "norad_id": 30393,
        "name": "FENGYUN 1C DEB",
        "group": "fengyun-1c-debris",
        "lat": -62.243548282367335,
        "lon": 60.51739886061541,
        "alt_km": 861.1249326828683,
        "timestamp": "2025-12-10T20:49:52.829641+00:00",
        "meta_object_name": "FENGYUN 1C DEB",
        "meta_object_id": "1999-025ADG",
        "meta_epoch": "2025-12-10T15:03:26.743968",
        "meta_mean_motion": 13.98981448,
        "meta_eccentricity": 0.00694576,
        "meta_inclination": 99.1645,
        "meta_ra_of_asc_node": 42.4138,
        "meta_arg_of_pericenter": 265.8286,
        "meta_mean_anomaly": 259.1501,
        "meta_ephemeris_type": 0,
        "meta_classification_type": "U",
        "meta_norad_cat_id": 30393,
        "meta_element_set_no": 999,
        "meta_rev_at_epoch": 96300,
        "meta_bstar": 0.00042640599,
        "meta_mean_motion_dot": 5.83e-06,
        "meta_mean_motion_ddot": 0,
        "tle_line1": "1 30393U 99025ADG 25344.62739287  .00000583  00000+0  42641-3 0  9990",
        "tle_line2": "2 30393  99.1645  42.4138 0069457 265.8286 259.1501 13.98981448963000"
      },
      "geometry": {
        "type": "Point",
        "coordinates": [
          60.51739886061541,
          -62.243548282367335
        ]
      }
    },
    {
      "type": "Feature",
      "properties": {
        "norad_id": 30394,
        "name": "FENGYUN 1C DEB",
        "group": "fengyun-1c-debris",
        "lat": -70.58569550670953,
        "lon": 41.24018957880206,
        "alt_km": 981.1887282187545,
        "timestamp": "2025-12-10T20:49:52.829651+00:00",
        "meta_object_name": "FENGYUN 1C DEB",
        "meta_object_id": "1999-025ADH",
        "meta_epoch": "2025-12-10T00:41:02.361984",
        "meta_mean_motion": 13.95784019,
        "meta_eccentricity": 0.00899214,
        "meta_inclination": 99.4355,
        "meta_ra_of_asc_node": 12.2279,
        "meta_arg_of_pericenter": 108.6753,
        "meta_mean_anomaly": 282.483,
        "meta_ephemeris_type": 0,
        "meta_classification_type": "U",
        "meta_norad_cat_id": 30394,
        "meta_element_set_no": 999,
        "meta_rev_at_epoch": 96066,
        "meta_bstar": 0.00050672464,
        "meta_mean_motion_dot": 6.69e-06,
        "meta_mean_motion_ddot": 0,
        "tle_line1": "1 30394U 99025ADH 25344.02849956  .00000669  00000+0  50672-3 0  9998",
        "tle_line2": "2 30394  99.4355  12.2279 0089921 108.6753 282.4830 13.95784019960669"
      },
      "geometry": {
        "type": "Point",
        "coordinates": [
          41.24018957880206,
          -70.58569550670953
        ]
      }
    },
    {
      "type": "Feature",
      "properties": {
        "norad_id": 30395,
        "name": "FENGYUN 1C DEB",
        "group": "fengyun-1c-debris",
        "lat": 70.64845910011323,
        "lon": -26.115422396997587,
        "alt_km": 809.9602483933713,
        "timestamp": "2025-12-10T20:49:52.829661+00:00",
        "meta_object_name": "FENGYUN 1C DEB",
        "meta_object_id": "1999-025ADJ",
        "meta_epoch": "2025-12-10T00:00:42.356736",
        "meta_mean_motion": 13.96685841,
        "meta_eccentricity": 0.01606051,
        "meta_inclination": 98.9309,
        "meta_ra_of_asc_node": 359.6405,
        "meta_arg_of_pericenter": 33.697,
        "meta_mean_anomaly": 358.5168,
        "meta_ephemeris_type": 0,
        "meta_classification_type": "U",
        "meta_norad_cat_id": 30395,
        "meta_element_set_no": 999,
        "meta_rev_at_epoch": 95985,
        "meta_bstar": 0.00066011355,
        "meta_mean_motion_dot": 9.78e-06,
        "meta_mean_motion_ddot": 0,
        "tle_line1": "1 30395U 99025ADJ 25344.00049024  .00000978  00000+0  66011-3 0  9992",
        "tle_line2": "2 30395  98.9309 359.6405 0160605  33.6970 358.5168 13.96685841959851"
      },
      "geometry": {
        "type": "Point",
        "coordinates": [
          -26.115422396997587,
          70.64845910011323
        ]
      }
    }
  ]
}